HST                     
1 20580U 90037B   26062.15651664  .00008766  00000+0  29119-3 0  9995
2 20580  28.4701  84.5634 0001675  60.3567 299.7195 15.29358901772310
POLAR                   
1 23802U 96013A   26061.74629649  .00000178  00000+0  00000+0 0  9990
2 23802  79.7411 228.2678 6362278 212.6879  83.6731  1.29845818143473
SWAS                    
1 25560U 98071A   26061.64025758  .00005793  00000+0  37385-3 0  9997
2 25560  69.8971 142.1245 0003362  25.2751 334.8577 15.08810310481192
CXO                     
1 25867U 99040B   26063.59985680  .00000824  00000+0  00000+0 0  9999
2 25867  54.4843 119.7682 8003286 310.7757   0.4217  0.37808937 16926
XMM-NEWTON              
1 25989U 99066A   26061.64181856  .00000062  00000+0  00000+0 0  9993
2 25989  65.0189 284.3763 4712552  66.8130 359.9781  0.50131664 22470
TERRA                   
1 25994U 99068A   26062.13367142  .00000513  00000+0  11359-3 0  9994
2 25994  97.9607 115.8185 0002257 167.8691 217.2698 14.61006268394120
CLUSTER II-FM7 (SAMBA)  
1 26410U 00041A   26063.25310773  .00003639  00000+0  00000+0 0  9992
2 26410 148.9920  34.5676 8908777 250.6745 359.7226  0.44785609 19832
CLUSTER II-FM8 (TANGO)  
1 26464U 00045B   26049.06287974  .00004776  00000+0  00000+0 0  9997
2 26464 149.0711  33.5376 8890045 249.4570 359.4916  0.44405995 19769
ODIN                    
1 26702U 01007A   26062.04841551  .00047203  00000+0  63085-3 0  9999
2 26702  97.4085  97.8242 0004044 156.4137 203.7305 15.57909867372800
TIMED                   
1 26998U 01055B   26062.15496086  .00001548  00000+0  14517-3 0  9998
2 26998  74.0660  88.4733 0002949 282.8989  77.1865 14.94997468314971
CORIOLIS                
1 27640U 03001A   26061.93484166  .00000176  00000+0  10311-3 0  9991
2 27640  98.7160  70.4302 0014466 155.1204 205.0672 14.19909642199148
SORCE                   
1 27651U 03004A   26061.65624908  .00004531  00000+0  34049-3 0  9998
2 27651  39.9904 149.1890 0016842   2.4266 357.6607 15.03033305255863
MOST                    
1 27843U 03031D   26061.98175538  .00000107  00000+0  69157-4 0  9991
2 27843  98.7081  71.1758 0009562 193.0216 167.0716 14.21297049175620
SCISAT 1                
1 27858U 03036A   26061.92937821  .00001138  00000+0  15039-3 0  9991
2 27858  73.9314  22.4412 0005899 117.0208 243.1571 14.81294880215718
SWIFT                   
1 28485U 04047A   26061.89036178  .00045443  00000+0  55519-3 0  9996
2 28485  20.5531 278.9198 0002958 303.2489  56.7671 15.58608096170202
HINODE (SOLAR-B)        
1 29479U 06041A   26062.03021429  .00000832  00000+0  15200-3 0  9992
2 29479  98.0628  79.7217 0016135 264.4191  95.5174 14.68460796 39297
SHIJIAN-6 02A (SJ-6 02A)
1 29505U 06046A   26062.17539331  .00007830  00000+0  41587-3 0  9990
2 29505  97.6511 102.4706 0004304 130.3006 229.8603 15.15584044 56206
