[{"OBJECT_NAME":"HST","OBJECT_ID":"1990-037B","EPOCH":"2026-03-03T03:45:23.037696","MEAN_MOTION":15.29358901,"ECCENTRICITY":0.0001675,"INCLINATION":28.4701,"RA_OF_ASC_NODE":84.5634,"ARG_OF_PERICENTER":60.3567,"MEAN_ANOMALY":299.7195,"EPHEMERIS_TYPE":0,"CLASSIFICATION_TYPE":"U","NORAD_CAT_ID":20580,"ELEMENT_SET_NO":999,"REV_AT_EPOCH":77231,"BSTAR":0.00029119,"MEAN_MOTION_DOT":8.766e-5,"MEAN_MOTION_DDOT":0},{"OBJECT_NAME":"POLAR","OBJECT_ID":"1996-013A","EPOCH":"2026-03-02T17:54:40.016736","MEAN_MOTION":1.29845818,"ECCENTRICITY":0.6362278,"INCLINATION":79.7411,"RA_OF_ASC_NODE":228.2678,"ARG_OF_PERICENTER":212.6879,"MEAN_ANOMALY":83.6731,"EPHEMERIS_TYPE":0,"CLASSIFICATION_TYPE":"U","NORAD_CAT_ID":23802,"ELEMENT_SET_NO":999,"REV_AT_EPOCH":14347,"BSTAR":0,"MEAN_MOTION_DOT":1.78e-6,"MEAN_MOTION_DDOT":0},{"OBJECT_NAME":"SWAS","OBJECT_ID":"1998-071A","EPOCH":"2026-03-02T15:21:58.254912","MEAN_MOTION":15.0881031,"ECCENTRICITY":0.0003362,"INCLINATION":69.8971,"RA_OF_ASC_NODE":142.1245,"ARG_OF_PERICENTER":25.2751,"MEAN_ANOMALY":334.8577,"EPHEMERIS_TYPE":0,"CLASSIFICATION_TYPE":"U","NORAD_CAT_ID":25560,"ELEMENT_SET_NO":999,"REV_AT_EPOCH":48119,"BSTAR":0.00037385,"MEAN_MOTION_DOT":5.793e-5,"MEAN_MOTION_DDOT":0},{"OBJECT_NAME":"CXO","OBJECT_ID":"1999-040B","EPOCH":"2026-03-04T14:23:47.627520","MEAN_MOTION":0.37808937,"ECCENTRICITY":0.80032862,"INCLINATION":54.4843,"RA_OF_ASC_NODE":119.7682,"ARG_OF_PERICENTER":310.7757,"MEAN_ANOMALY":0.4217,"EPHEMERIS_TYPE":0,"CLASSIFICATION_TYPE":"U","NORAD_CAT_ID":25867,"ELEMENT_SET_NO":999,"REV_AT_EPOCH":1692,"BSTAR":0,"MEAN_MOTION_DOT":8.24e-6,"MEAN_MOTION_DDOT":0},{"OBJECT_NAME":"XMM-NEWTON","OBJECT_ID":"1999-066A","EPOCH":"2026-03-02T15:24:13.123584","MEAN_MOTION":0.50131664,"ECCENTRICITY":0.47125523,"INCLINATION":65.0189,"RA_OF_ASC_NODE":284.3763,"ARG_OF_PERICENTER":66.813,"MEAN_ANOMALY":359.9781,"EPHEMERIS_TYPE":0,"CLASSIFICATION_TYPE":"U","NORAD_CAT_ID":25989,"ELEMENT_SET_NO":999,"REV_AT_EPOCH":2247,"BSTAR":0,"MEAN_MOTION_DOT":6.2e-7,"MEAN_MOTION_DDOT":0},{"OBJECT_NAME":"TERRA","OBJECT_ID":"1999-068A","EPOCH":"2026-03-03T03:12:29.210688","MEAN_MOTION":14.61006268,"ECCENTRICITY":0.0002257,"INCLINATION":97.9607,"RA_OF_ASC_NODE":115.8185,"ARG_OF_PERICENTER":167.8691,"MEAN_ANOMALY":217.2698,"EPHEMERIS_TYPE":0,"CLASSIFICATION_TYPE":"U","NORAD_CAT_ID":25994,"ELEMENT_SET_NO":999,"REV_AT_EPOCH":39412,"BSTAR":0.00011359,"MEAN_MOTION_DOT":5.13e-6,"MEAN_MOTION_DDOT":0},{"OBJECT_NAME":"CLUSTER II-FM7 (SAMBA)","OBJECT_ID":"2000-041A","EPOCH":"2026-03-04T06:04:28.507872","MEAN_MOTION":0.44785609,"ECCENTRICITY":0.89087774,"INCLINATION":148.992,"RA_OF_ASC_NODE":34.5676,"ARG_OF_PERICENTER":250.6745,"MEAN_ANOMALY":359.7226,"EPHEMERIS_TYPE":0,"CLASSIFICATION_TYPE":"U","NORAD_CAT_ID":26410,"ELEMENT_SET_NO":999,"REV_AT_EPOCH":1983,"BSTAR":0,"MEAN_MOTION_DOT":3.639e-5,"MEAN_MOTION_DDOT":0},{"OBJECT_NAME":"CLUSTER II-FM8 (TANGO)","OBJECT_ID":"2000-045B","EPOCH":"2026-02-18T01:30:32.809536","MEAN_MOTION":0.44405995,"ECCENTRICITY":0.88900451,"INCLINATION":149.0711,"RA_OF_ASC_NODE":33.5376,"ARG_OF_PERICENTER":249.457,"MEAN_ANOMALY":359.4916,"EPHEMERIS_TYPE":0,"CLASSIFICATION_TYPE":"U","NORAD_CAT_ID":26464,"ELEMENT_SET_NO":999,"REV_AT_EPOCH":1976,"BSTAR":0,"MEAN_MOTION_DOT":4.776e-5,"MEAN_MOTION_DDOT":0},{"OBJECT_NAME":"ODIN","OBJECT_ID":"2001-007A","EPOCH":"2026-03-03T01:09:43.100064","MEAN_MOTION":15.57909867,"ECCENTRICITY":0.0004044,"INCLINATION":97.4085,"RA_OF_ASC_NODE":97.8242,"ARG_OF_PERICENTER":156.4137,"MEAN_ANOMALY":203.7305,"EPHEMERIS_TYPE":0,"CLASSIFICATION_TYPE":"U","NORAD_CAT_ID":26702,"ELEMENT_SET_NO":999,"REV_AT_EPOCH":37280,"BSTAR":0.00063085,"MEAN_MOTION_DOT":0.00047203,"MEAN_MOTION_DDOT":0},{"OBJECT_NAME":"TIMED","OBJECT_ID":"2001-055B","EPOCH":"2026-03-03T03:43:08.618304","MEAN_MOTION":14.94997468,"ECCENTRICITY":0.0002949,"INCLINATION":74.066,"RA_OF_ASC_NODE":88.4733,"ARG_OF_PERICENTER":282.8989,"MEAN_ANOMALY":77.1865,"EPHEMERIS_TYPE":0,"CLASSIFICATION_TYPE":"U","NORAD_CAT_ID":26998,"ELEMENT_SET_NO":999,"REV_AT_EPOCH":31497,"BSTAR":0.00014517,"MEAN_MOTION_DOT":1.548e-5,"MEAN_MOTION_DDOT":0},{"OBJECT_NAME":"CORIOLIS","OBJECT_ID":"2003-001A","EPOCH":"2026-03-02T22:26:10.319424","MEAN_MOTION":14.19909642,"ECCENTRICITY":0.0014466,"INCLINATION":98.716,"RA_OF_ASC_NODE":70.4302,"ARG_OF_PERICENTER":155.1204,"MEAN_ANOMALY":205.0672,"EPHEMERIS_TYPE":0,"CLASSIFICATION_TYPE":"U","NORAD_CAT_ID":27640,"ELEMENT_SET_NO":999,"REV_AT_EPOCH":19914,"BSTAR":0.00010311,"MEAN_MOTION_DOT":1.76e-6,"MEAN_MOTION_DDOT":0},{"OBJECT_NAME":"SORCE","OBJECT_ID":"2003-004A","EPOCH":"2026-03-02T15:44:59.920512","MEAN_MOTION":15.03033305,"ECCENTRICITY":0.00168426,"INCLINATION":39.9904,"RA_OF_ASC_NODE":149.189,"ARG_OF_PERICENTER":2.4266,"MEAN_ANOMALY":357.6607,"EPHEMERIS_TYPE":0,"CLASSIFICATION_TYPE":"U","NORAD_CAT_ID":27651,"ELEMENT_SET_NO":999,"REV_AT_EPOCH":25586,"BSTAR":0.0003404856,"MEAN_MOTION_DOT":4.531e-5,"MEAN_MOTION_DDOT":0},{"OBJECT_NAME":"MOST","OBJECT_ID":"2003-031D","EPOCH":"2026-03-02T23:33:43.664832","MEAN_MOTION":14.21297049,"ECCENTRICITY":0.0009562,"INCLINATION":98.7081,"RA_OF_ASC_NODE":71.1758,"ARG_OF_PERICENTER":193.0216,"MEAN_ANOMALY":167.0716,"EPHEMERIS_TYPE":0,"CLASSIFICATION_TYPE":"U","NORAD_CAT_ID":27843,"ELEMENT_SET_NO":999,"REV_AT_EPOCH":17562,"BSTAR":6.9157e-5,"MEAN_MOTION_DOT":1.07e-6,"MEAN_MOTION_DDOT":0},{"OBJECT_NAME":"SCISAT 1","OBJECT_ID":"2003-036A","EPOCH":"2026-03-02T22:18:18.277344","MEAN_MOTION":14.8129488,"ECCENTRICITY":0.0005899,"INCLINATION":73.9314,"RA_OF_ASC_NODE":22.4412,"ARG_OF_PERICENTER":117.0208,"MEAN_ANOMALY":243.1571,"EPHEMERIS_TYPE":0,"CLASSIFICATION_TYPE":"U","NORAD_CAT_ID":27858,"ELEMENT_SET_NO":999,"REV_AT_EPOCH":21571,"BSTAR":0.00015039,"MEAN_MOTION_DOT":1.138e-5,"MEAN_MOTION_DDOT":0},{"OBJECT_NAME":"SWIFT","OBJECT_ID":"2004-047A","EPOCH":"2026-03-02T21:22:07.257792","MEAN_MOTION":15.58608096,"ECCENTRICITY":0.0002958,"INCLINATION":20.5531,"RA_OF_ASC_NODE":278.9198,"ARG_OF_PERICENTER":303.2489,"MEAN_ANOMALY":56.7671,"EPHEMERIS_TYPE":0,"CLASSIFICATION_TYPE":"U","NORAD_CAT_ID":28485,"ELEMENT_SET_NO":999,"REV_AT_EPOCH":17020,"BSTAR":0.00055519,"MEAN_MOTION_DOT":0.00045443,"MEAN_MOTION_DDOT":0},{"OBJECT_NAME":"HINODE (SOLAR-B)","OBJECT_ID":"2006-041A","EPOCH":"2026-03-03T00:43:30.514656","MEAN_MOTION":14.68460796,"ECCENTRICITY":0.0016135,"INCLINATION":98.0628,"RA_OF_ASC_NODE":79.7217,"ARG_OF_PERICENTER":264.4191,"MEAN_ANOMALY":95.5174,"EPHEMERIS_TYPE":0,"CLASSIFICATION_TYPE":"U","NORAD_CAT_ID":29479,"ELEMENT_SET_NO":999,"REV_AT_EPOCH":3929,"BSTAR":0.000152,"MEAN_MOTION_DOT":8.32e-6,"MEAN_MOTION_DDOT":0},{"OBJECT_NAME":"SHIJIAN-6 02A (SJ-6 02A)","OBJECT_ID":"2006-046A","EPOCH":"2026-03-03T04:12:33.981984","MEAN_MOTION":15.15584044,"ECCENTRICITY":0.0004304,"INCLINATION":97.6511,"RA_OF_ASC_NODE":102.4706,"ARG_OF_PERICENTER":130.3006,"MEAN_ANOMALY":229.8603,"EPHEMERIS_TYPE":0,"CLASSIFICATION_TYPE":"U","NORAD_CAT_ID":29505,"ELEMENT_SET_NO":999,"REV_AT_EPOCH":5620,"BSTAR":0.00041587,"MEAN_MOTION_DOT":7.83e-5,"MEAN_MOTION_DDOT":0}]
